start=new Date('2021-09-26T00:00:00.000Z').valueOf();
sats=[{"MEAN_MOTION_DDOT":"0.0000000000000","GP_ID":"185507223","MEAN_MOTION_DOT":"-0.00002244","CENTER_NAME":"EARTH","ELEMENT_SET_NO":"999","INCLINATION":"53.0424","SITE":"AFETR","LAUNCH_DATE":"2021-03-11","TIME_SYSTEM":"UTC","CLASSIFICATION_TYPE":"U","APOAPSIS":"547.566","EPOCH":"2021-09-25T10:40:50.499552","FILE":"3128274","REV_AT_EPOCH":"3189","PERIOD":"95.593","RA_OF_ASC_NODE":"322.1672","MEAN_ANOMALY":"216.8489","OBJECT_ID":"2021-018W","OBJECT_TYPE":"PAYLOAD","EPHEMERIS_TYPE":"0","COUNTRY_CODE":"US","TLE_LINE1":"1 47807U 21018W   21268.44502893 -.00002244  00000-0 -13185-3 0  9997","PERIAPSIS":"546.912","OBJECT_NAME":"STARLINK-2388","ECCENTRICITY":"0.00004720","TLE_LINE2":"2 47807  53.0424 322.1672 0000472 143.2532 216.8489 15.06391736 31892","DECAY_DATE":null,"RCS_SIZE":"LARGE","MEAN_MOTION":"15.06391736","ARG_OF_PERICENTER":"143.2532","BSTAR":"-0.00013185000000","SEMIMAJOR_AXIS":"6925.374","NORAD_CAT_ID":"47807","MEAN_ELEMENT_THEORY":"SGP4","REF_FRAME":"TEME"},{"MEAN_MOTION_DOT":"-0.00001679","ELEMENT_SET_NO":"999","CENTER_NAME":"EARTH","GP_ID":"185506472","MEAN_MOTION_DDOT":"0.0000000000000","FILE":"3128274","EPOCH":"2021-09-25T12:56:49.461504","APOAPSIS":"547.936","CLASSIFICATION_TYPE":"U","REV_AT_EPOCH":"3162","INCLINATION":"53.0568","SITE":"AFETR","TIME_SYSTEM":"UTC","LAUNCH_DATE":"2021-03-11","OBJECT_ID":"2021-018X","OBJECT_TYPE":"PAYLOAD","TLE_LINE1":"1 47808U 21018X   21268.53946136 -.00001679  00000-0 -93900-4 0  9995","OBJECT_NAME":"STARLINK-2389","PERIAPSIS":"546.517","ECCENTRICITY":"0.00010250","COUNTRY_CODE":"US","EPHEMERIS_TYPE":"0","PERIOD":"95.592","MEAN_ANOMALY":"246.8763","RA_OF_ASC_NODE":"346.6850","ARG_OF_PERICENTER":"113.2334","MEAN_MOTION":"15.06395819","REF_FRAME":"TEME","MEAN_ELEMENT_THEORY":"SGP4","SEMIMAJOR_AXIS":"6925.361","BSTAR":"-0.00009390000000","NORAD_CAT_ID":"47808","TLE_LINE2":"2 47808  53.0568 346.6850 0001025 113.2334 246.8763 15.06395819 31628","RCS_SIZE":"LARGE","DECAY_DATE":null},{"ARG_OF_PERICENTER":"98.0612","MEAN_MOTION":"15.06390157","MEAN_ELEMENT_THEORY":"SGP4","REF_FRAME":"TEME","NORAD_CAT_ID":"47809","SEMIMAJOR_AXIS":"6925.379","BSTAR":"0.00007486000000","TLE_LINE2":"2 47809  53.0555 351.6525 0001058  98.0612 262.0497 15.06390157 31551","DECAY_DATE":null,"RCS_SIZE":"LARGE","OBJECT_ID":"2021-018Y","OBJECT_TYPE":"PAYLOAD","OBJECT_NAME":"STARLINK-2390","TLE_LINE1":"1 47809U 21018Y   21268.54547745  .00000834  00000-0  74860-4 0  9994","PERIAPSIS":"546.511","ECCENTRICITY":"0.00010580","COUNTRY_CODE":"US","EPHEMERIS_TYPE":"0","PERIOD":"95.593","MEAN_ANOMALY":"262.0497","RA_OF_ASC_NODE":"351.6525","EPOCH":"2021-09-25T13:05:29.251680","FILE":"3128274","APOAPSIS":"547.976","CLASSIFICATION_TYPE":"U","REV_AT_EPOCH":"3155","SITE":"AFETR","INCLINATION":"53.0555","LAUNCH_DATE":"2021-03-11","TIME_SYSTEM":"UTC","MEAN_MOTION_DOT":"0.00000834","ELEMENT_SET_NO":"999","CENTER_NAME":"EARTH","GP_ID":"185506722","MEAN_MOTION_DDOT":"0.0000000000000"},{"RA_OF_ASC_NODE":"1.8584","MEAN_ANOMALY":"272.6978","PERIOD":"95.592","EPHEMERIS_TYPE":"0","COUNTRY_CODE":"US","TLE_LINE1":"1 47810U 21018Z   21268.50401423 -.00001535  00000-0 -84222-4 0  9998","PERIAPSIS":"546.380","OBJECT_NAME":"STARLINK-2391","ECCENTRICITY":"0.00012270","OBJECT_ID":"2021-018Z","OBJECT_TYPE":"PAYLOAD","DECAY_DATE":null,"RCS_SIZE":"LARGE","TLE_LINE2":"2 47810  53.0565   1.8584 0001227  87.4152 272.6978 15.06394644 31402","SEMIMAJOR_AXIS":"6925.365","BSTAR":"-0.00008422200000","NORAD_CAT_ID":"47810","MEAN_ELEMENT_THEORY":"SGP4","REF_FRAME":"TEME","MEAN_MOTION":"15.06394644","ARG_OF_PERICENTER":"87.4152","MEAN_MOTION_DDOT":"0.0000000000000","GP_ID":"185507474","CENTER_NAME":"EARTH","ELEMENT_SET_NO":"999","MEAN_MOTION_DOT":"-0.00001535","TIME_SYSTEM":"UTC","LAUNCH_DATE":"2021-03-11","INCLINATION":"53.0565","SITE":"AFETR","REV_AT_EPOCH":"3140","CLASSIFICATION_TYPE":"U","APOAPSIS":"548.080","FILE":"3128274","EPOCH":"2021-09-25T12:05:46.829472"},{"PERIOD":"95.593","RA_OF_ASC_NODE":"331.9586","MEAN_ANOMALY":"249.6752","OBJECT_TYPE":"PAYLOAD","OBJECT_ID":"2021-018AA","COUNTRY_CODE":"US","EPHEMERIS_TYPE":"0","PERIAPSIS":"546.528","TLE_LINE1":"1 47811U 21018AA  21268.47728914 -.00000357  00000-0 -50677-5 0  9991","ECCENTRICITY":"0.00010440","OBJECT_NAME":"STARLINK-2392","TLE_LINE2":"2 47811  53.0569 331.9586 0001044 110.4349 249.6752 15.06387723 31828","DECAY_DATE":null,"RCS_SIZE":"LARGE","MEAN_MOTION":"15.06387723","ARG_OF_PERICENTER":"110.4349","MEAN_ELEMENT_THEORY":"SGP4","REF_FRAME":"TEME","SEMIMAJOR_AXIS":"6925.386","BSTAR":"-0.00000506770000","NORAD_CAT_ID":"47811","MEAN_MOTION_DDOT":"0.0000000000000","GP_ID":"185507724","MEAN_MOTION_DOT":"-0.00000357","ELEMENT_SET_NO":"999","CENTER_NAME":"EARTH","INCLINATION":"53.0569","SITE":"AFETR","TIME_SYSTEM":"UTC","LAUNCH_DATE":"2021-03-11","CLASSIFICATION_TYPE":"U","EPOCH":"2021-09-25T11:27:17.781696","FILE":"3128274","APOAPSIS":"547.974","REV_AT_EPOCH":"3182"},{"REV_AT_EPOCH":"3134","APOAPSIS":"547.866","EPOCH":"2021-09-25T12:21:41.534784","FILE":"3128274","CLASSIFICATION_TYPE":"U","LAUNCH_DATE":"2021-03-11","TIME_SYSTEM":"UTC","INCLINATION":"53.0559","SITE":"AFETR","CENTER_NAME":"EARTH","ELEMENT_SET_NO":"999","MEAN_MOTION_DOT":"-0.00000255","GP_ID":"185505972","MEAN_MOTION_DDOT":"0.0000000000000","SEMIMAJOR_AXIS":"6925.357","NORAD_CAT_ID":"47812","BSTAR":"0.00000174350000","MEAN_ELEMENT_THEORY":"SGP4","REF_FRAME":"TEME","ARG_OF_PERICENTER":"105.4706","MEAN_MOTION":"15.06397112","DECAY_DATE":null,"RCS_SIZE":"LARGE","TLE_LINE2":"2 47812  53.0559   1.7884 0000930 105.4706 254.6386 15.06397112 31344","TLE_LINE1":"1 47812U 21018AB  21268.51506406 -.00000255  00000-0  17435-5 0  9998","ECCENTRICITY":"0.00009300","PERIAPSIS":"546.578","OBJECT_NAME":"STARLINK-2393","EPHEMERIS_TYPE":"0","COUNTRY_CODE":"US","OBJECT_TYPE":"PAYLOAD","OBJECT_ID":"2021-018AB","MEAN_ANOMALY":"254.6386","RA_OF_ASC_NODE":"1.7884","PERIOD":"95.592"},{"ECCENTRICITY":"0.00007020","TLE_LINE1":"1 47813U 21018AC  21268.49939969 -.00000758  00000-0 -32012-4 0  9996","PERIAPSIS":"546.734","OBJECT_NAME":"STARLINK-2394","COUNTRY_CODE":"US","EPHEMERIS_TYPE":"0","OBJECT_ID":"2021-018AC","OBJECT_TYPE":"PAYLOAD","MEAN_ANOMALY":"216.9927","RA_OF_ASC_NODE":"331.8646","PERIOD":"95.592","MEAN_ELEMENT_THEORY":"SGP4","REF_FRAME":"TEME","SEMIMAJOR_AXIS":"6925.355","NORAD_CAT_ID":"47813","BSTAR":"-0.00003201200000","ARG_OF_PERICENTER":"143.1110","MEAN_MOTION":"15.06397895","DECAY_DATE":null,"RCS_SIZE":"LARGE","TLE_LINE2":"2 47813  53.0576 331.8646 0000702 143.1110 216.9927 15.06397895 31825","ELEMENT_SET_NO":"999","CENTER_NAME":"EARTH","MEAN_MOTION_DOT":"-0.00000758","GP_ID":"185506222","MEAN_MOTION_DDOT":"0.0000000000000","REV_AT_EPOCH":"3182","EPOCH":"2021-09-25T11:59:08.133216","FILE":"3128274","APOAPSIS":"547.706","CLASSIFICATION_TYPE":"U","TIME_SYSTEM":"UTC","LAUNCH_DATE":"2021-03-11","SITE":"AFETR","INCLINATION":"53.0576"},{"OBJECT_ID":"2021-018AD","OBJECT_TYPE":"PAYLOAD","TLE_LINE1":"1 47814U 21018AD  21268.52336638  .00002291  00000-0  17263-3 0  9997","ECCENTRICITY":"0.00010930","PERIAPSIS":"546.440","OBJECT_NAME":"STARLINK-2395","COUNTRY_CODE":"US","EPHEMERIS_TYPE":"0","PERIOD":"95.592","MEAN_ANOMALY":"264.2235","RA_OF_ASC_NODE":"351.7671","ARG_OF_PERICENTER":"95.8879","MEAN_MOTION":"15.06405513","MEAN_ELEMENT_THEORY":"SGP4","REF_FRAME":"TEME","SEMIMAJOR_AXIS":"6925.332","NORAD_CAT_ID":"47814","BSTAR":"0.00017263000000","TLE_LINE2":"2 47814  53.0556 351.7671 0001093  95.8879 264.2235 15.06405513 31557","RCS_SIZE":"MEDIUM","DECAY_DATE":null,"MEAN_MOTION_DOT":"0.00002291","ELEMENT_SET_NO":"999","CENTER_NAME":"EARTH","GP_ID":"185506974","MEAN_MOTION_DDOT":"0.0000000000000","FILE":"3128274","EPOCH":"2021-09-25T12:33:38.855232","APOAPSIS":"547.954","CLASSIFICATION_TYPE":"U","REV_AT_EPOCH":"3155","SITE":"AFETR","INCLINATION":"53.0556","TIME_SYSTEM":"UTC","LAUNCH_DATE":"2021-03-11"},{"PERIOD":"95.593","MEAN_ANOMALY":"269.1164","RA_OF_ASC_NODE":"346.9169","OBJECT_TYPE":"PAYLOAD","OBJECT_ID":"2021-018AE","TLE_LINE1":"1 47815U 21018AE  21268.48880372 -.00000854  00000-0 -38459-4 0  9998","ECCENTRICITY":"0.00010850","PERIAPSIS":"546.497","OBJECT_NAME":"STARLINK-2396","EPHEMERIS_TYPE":"0","COUNTRY_CODE":"US","TLE_LINE2":"2 47815  53.0572 346.9169 0001085  90.9950 269.1164 15.06388762 31552","DECAY_DATE":null,"RCS_SIZE":"LARGE","ARG_OF_PERICENTER":"90.9950","MEAN_MOTION":"15.06388762","SEMIMAJOR_AXIS":"6925.383","BSTAR":"-0.00003845900000","NORAD_CAT_ID":"47815","MEAN_ELEMENT_THEORY":"SGP4","REF_FRAME":"TEME","GP_ID":"185507224","MEAN_MOTION_DDOT":"0.0000000000000","MEAN_MOTION_DOT":"-0.00000854","CENTER_NAME":"EARTH","ELEMENT_SET_NO":"999","INCLINATION":"53.0572","SITE":"AFETR","LAUNCH_DATE":"2021-03-11","TIME_SYSTEM":"UTC","APOAPSIS":"547.999","FILE":"3128274","EPOCH":"2021-09-25T11:43:52.641408","CLASSIFICATION_TYPE":"U","REV_AT_EPOCH":"3155"},{"DECAY_DATE":null,"RCS_SIZE":"LARGE","TLE_LINE2":"2 47816  53.0571 351.8722 0001133 101.2988 258.8128 15.06409351 31488","BSTAR":"0.00005389200000","SEMIMAJOR_AXIS":"6925.320","NORAD_CAT_ID":"47816","REF_FRAME":"TEME","MEAN_ELEMENT_THEORY":"SGP4","ARG_OF_PERICENTER":"101.2988","MEAN_MOTION":"15.06409351","MEAN_ANOMALY":"258.8128","RA_OF_ASC_NODE":"351.8722","PERIOD":"95.592","ECCENTRICITY":"0.00011330","TLE_LINE1":"1 47816U 21018AF  21268.49755159  .00000522  00000-0  53892-4 0  9992","PERIAPSIS":"546.400","OBJECT_NAME":"STARLINK-2399","EPHEMERIS_TYPE":"0","COUNTRY_CODE":"US","OBJECT_TYPE":"PAYLOAD","OBJECT_ID":"2021-018AF","LAUNCH_DATE":"2021-03-11","TIME_SYSTEM":"UTC","SITE":"AFETR","INCLINATION":"53.0571","REV_AT_EPOCH":"3148","APOAPSIS":"547.970","EPOCH":"2021-09-25T11:56:28.457376","FILE":"3128274","CLASSIFICATION_TYPE":"U","GP_ID":"185506473","MEAN_MOTION_DDOT":"0.0000000000000","CENTER_NAME":"EARTH","ELEMENT_SET_NO":"999","MEAN_MOTION_DOT":"0.00000522"}];
